$$SOE
2461295.500000000, A.D. 2026-Sep-12 00:00:00.0000, -4.783242884730036E+08, 3.094924245809296E+08, 1.677378921838161E+08,
2461302.500000000, A.D. 2026-Sep-19 00:00:00.0000, -4.832440116396474E+08, 3.029404165137575E+08, 1.670536996933136E+08,
2461309.500000000, A.D. 2026-Sep-26 00:00:00.0000, -4.880519845532787E+08, 2.963186470898495E+08, 1.663306931353054E+08,
2461316.500000000, A.D. 2026-Oct-03 00:00:00.0000, -4.927473176285062E+08, 2.896287776887870E+08, 1.655691180476398E+08,
2461323.500000000, A.D. 2026-Oct-10 00:00:00.0000, -4.973291368589827E+08, 2.828724707723649E+08, 1.647692233579276E+08,
2461330.500000000, A.D. 2026-Oct-17 00:00:00.0000, -5.017965835910317E+08, 2.760513901092981E+08, 1.639312613729836E+08,
2461337.500000000, A.D. 2026-Oct-24 00:00:00.0000, -5.061488143197147E+08, 2.691672009106393E+08, 1.630554877646140E+08,
2461344.500000000, A.D. 2026-Oct-31 00:00:00.0000, -5.103850004084802E+08, 2.622215698090004E+08, 1.621421615372812E+08,
2461351.500000000, A.D. 2026-Nov-07 00:00:00.0000, -5.145043273932427E+08, 2.552161647554059E+08, 1.611915449526732E+08,
2461358.500000000, A.D. 2026-Nov-14 00:00:00.0000, -5.185059936699420E+08, 2.481526557208418E+08, 1.602039034653773E+08,
2461365.500000000, A.D. 2026-Nov-21 00:00:00.0000, -5.223892103776143E+08, 2.410327168840203E+08, 1.591795058918148E+08,
2461372.500000000, A.D. 2026-Nov-28 00:00:00.0000, -5.261532034756415E+08, 2.338580272974611E+08, 1.581186246586458E+08,
2461379.500000000, A.D. 2026-Dec-05 00:00:00.0000, -5.297972143953336E+08, 2.266302693758448E+08, 1.570215357452727E+08,
2461386.500000000, A.D. 2026-Dec-12 00:00:00.0000, -5.333204991003107E+08, 2.193511283170719E+08, 1.558885185595195E+08,
2461393.500000000, A.D. 2026-Dec-19 00:00:00.0000, -5.367223274433244E+08, 2.120222924619515E+08, 1.547198559203924E+08,
2461400.500000000, A.D. 2026-Dec-26 00:00:00.0000, -5.400019829624641E+08, 2.046454537246028E+08, 1.535158340904695E+08,
2461407.500000000, A.D. 2027-Jan-02 00:00:00.0000, -5.431587628411824E+08, 1.972223079028214E+08, 1.522767428172132E+08,
2461414.500000000, A.D. 2027-Jan-09 00:00:00.0000, -5.461919779154886E+08, 1.897545548885013E+08, 1.510028753741075E+08,
2461421.500000000, A.D. 2027-Jan-16 00:00:00.0000, -5.491009526935804E+08, 1.822438987865987E+08, 1.496945285989291E+08,
2461428.500000000, A.D. 2027-Jan-23 00:00:00.0000, -5.518850253429106E+08, 1.746920479024581E+08, 1.483520029214571E+08,
2461435.500000000, A.D. 2027-Jan-30 00:00:00.0000, -5.545435474583306E+08, 1.671007145490173E+08, 1.469756023592719E+08,
2461442.500000000, A.D. 2027-Feb-06 00:00:00.0000, -5.570758831882557E+08, 1.594716150132044E+08, 1.455656344703321E+08,
2461449.500000000, A.D. 2027-Feb-13 00:00:00.0000, -5.594814081810787E+08, 1.518064709006033E+08, 1.441224104041754E+08,
2461456.500000000, A.D. 2027-Feb-20 00:00:00.0000, -5.617595107178990E+08, 1.441070110671178E+08, 1.426462452040217E+08,
2461463.500000000, A.D. 2027-Feb-27 00:00:00.0000, -5.639095936374749E+08, 1.363749709244748E+08, 1.411374579692700E+08,
2461470.500000000, A.D. 2027-Mar-06 00:00:00.0000, -5.659310740355049E+08, 1.286120910427288E+08, 1.395963717583933E+08,
2461477.500000000, A.D. 2027-Mar-13 00:00:00.0000, -5.678233823380936E+08, 1.208201170989132E+08, 1.380233135459309E+08,
2461484.500000000, A.D. 2027-Mar-20 00:00:00.0000, -5.695859618791006E+08, 1.130008003367299E+08, 1.364186142686819E+08,
2461491.500000000, A.D. 2027-Mar-27 00:00:00.0000, -5.712182687797271E+08, 1.051558979881977E+08, 1.347826088975976E+08,
2461498.500000000, A.D. 2027-Apr-03 00:00:00.0000, -5.727197719275650E+08, 9.728717360941821E+07, 1.331156365127540E+08,
2461505.500000000, A.D. 2027-Apr-10 00:00:00.0000, -5.740899529939523E+08, 8.939639735332407E+07, 1.314180403775874E+08,
2461512.500000000, A.D. 2027-Apr-17 00:00:00.0000, -5.753283064677298E+08, 8.148534616489612E+07, 1.296901680091844E+08,
2461519.500000000, A.D. 2027-Apr-24 00:00:00.0000, -5.764343396264193E+08, 7.355580383654045E+07, 1.279323712323070E+08,
2461526.500000000, A.D. 2027-May-01 00:00:00.0000, -5.774075721453924E+08, 6.560956095135862E+07, 1.261450061919816E+08,
2461533.500000000, A.D. 2027-May-08 00:00:00.0000, -5.782475350377283E+08, 5.764841546260470E+07, 1.243284333576258E+08,
2461540.500000000, A.D. 2027-May-15 00:00:00.0000, -5.789537704217823E+08, 4.967417486248185E+07, 1.224830177339158E+08,
2461547.500000000, A.D. 2027-May-22 00:00:00.0000, -5.795258336810365E+08, 4.168865734843092E+07, 1.206091292102033E+08,
2461554.500000000, A.D. 2027-May-29 00:00:00.0000, -5.799632946609758E+08, 3.369369051895162E+07, 1.187071426209282E+08,
2461561.500000000, A.D. 2027-Jun-05 00:00:00.0000, -5.802657370177652E+08, 2.569111073094965E+07, 1.167774376917582E+08,
2461568.500000000, A.D. 2027-Jun-12 00:00:00.0000, -5.804327577259258E+08, 1.768276354992233E+07, 1.148203990907763E+08,
2461575.500000000, A.D. 2027-Jun-19 00:00:00.0000, -5.804639670765125E+08, 9.670504357461382E+06, 1.128364165388454E+08,
2461582.500000000, A.D. 2027-Jun-26 00:00:00.0000, -5.803589888870015E+08, 1.656198854589447E+06, 1.108258849324577E+08,
2461589.500000000, A.D. 2027-Jul-03 00:00:00.0000, -5.801174607911683E+08, -6.358276530840501E+06, 1.087892044678987E+08,
2461596.500000000, A.D. 2027-Jul-10 00:00:00.0000, -5.797390345724084E+08, -1.437103432410343E+07, 1.067267807643029E+08,
2461603.500000000, A.D. 2027-Jul-17 00:00:00.0000, -5.792233765044626E+08, -2.238017580999836E+07, 1.046390249793559E+08,
2461610.500000000, A.D. 2027-Jul-24 00:00:00.0000, -5.785701675434783E+08, -3.038379102873243E+07, 1.025263538984217E+08,
2461617.500000000, A.D. 2027-Jul-31 00:00:00.0000, -5.777791029603264E+08, -3.837995872602142E+07, 1.003891899788534E+08,
2461624.500000000, A.D. 2027-Aug-07 00:00:00.0000, -5.768498916141773E+08, -4.636674510599633E+07, 9.822796146218604E+07,
2461631.500000000, A.D. 2027-Aug-14 00:00:00.0000, -5.757822571689585E+08, -5.434220164076325E+07, 9.604310274469809E+07,
2461638.500000000, A.D. 2027-Aug-21 00:00:00.0000, -5.745759406356926E+08, -6.230436530119972E+07, 9.383505467492639E+07,
2461645.500000000, A.D. 2027-Aug-28 00:00:00.0000, -5.732307008105646E+08, -7.025126000545168E+07, 9.160426456188913E+07,
2461652.500000000, A.D. 2027-Sep-04 00:00:00.0000, -5.717463137896230E+08, -7.818089678248414E+07, 8.935118620656002E+07,
2461659.500000000, A.D. 2027-Sep-11 00:00:00.0000, -5.701225729550825E+08, -8.609127331226707E+07, 8.707628003009266E+07,
2461666.500000000, A.D. 2027-Sep-18 00:00:00.0000, -5.683592893001460E+08, -9.398037349317184E+07, 8.478001323308021E+07,
2461673.500000000, A.D. 2027-Sep-25 00:00:00.0000, -5.664562918636620E+08, -1.018461671145024E+08, 8.246285995818481E+07,
2461680.500000000, A.D. 2027-Oct-02 00:00:00.0000, -5.644134281998029E+08, -1.096866096069807E+08, 8.012530145121646E+07,
2461687.500000000, A.D. 2027-Oct-09 00:00:00.0000, -5.622305648608184E+08, -1.174996418761752E+08, 7.776782621803792E+07,
2461694.500000000, A.D. 2027-Oct-16 00:00:00.0000, -5.599075878305595E+08, -1.252831902741373E+08, 7.539093016691963E+07,
2461701.500000000, A.D. 2027-Oct-23 00:00:00.0000, -5.574444026498721E+08, -1.330351667150904E+08, 7.299511671198310E+07,
2461708.500000000, A.D. 2027-Oct-30 00:00:00.0000, -5.548409338599160E+08, -1.407534683247962E+08, 7.058089685315306E+07,
2461715.500000000, A.D. 2027-Nov-06 00:00:00.0000, -5.520971249272423E+08, -1.484359754954984E+08, 6.814878943136324E+07,
2461722.500000000, A.D. 2027-Nov-13 00:00:00.0000, -5.492129406366036E+08, -1.560805504231456E+08, 6.569932157129938E+07,
2461729.500000000, A.D. 2027-Nov-20 00:00:00.0000, -5.461883690508049E+08, -1.636850383133063E+08, 6.323302886691489E+07,
2461736.500000000, A.D. 2027-Nov-27 00:00:00.0000, -5.430234214207402E+08, -1.712472682913215E+08, 6.075045540362880E+07,
2461743.500000000, A.D. 2027-Dec-04 00:00:00.0000, -5.397181320690106E+08, -1.787650531029822E+08, 5.825215387733843E+07,
2461750.500000000, A.D. 2027-Dec-11 00:00:00.0000, -5.362725587977737E+08, -1.862361885705762E+08, 5.573868578184293E+07,
2461757.500000000, A.D. 2027-Dec-18 00:00:00.0000, -5.326867835465308E+08, -1.936584531444522E+08, 5.321062161174493E+07,
2461764.500000000, A.D. 2027-Dec-25 00:00:00.0000, -5.289609131487610E+08, -2.010296075531268E+08, 5.066854106675683E+07,
2461771.500000000, A.D. 2028-Jan-01 00:00:00.0000, -5.250950801467831E+08, -2.083473945381086E+08, 4.811303325484309E+07,
$$EOE